ONEWEB-0387             
1 49313U 21090AL  25295.11154147  .00000040  00000+0  65924-4 0  9992
2 49313  87.9199 321.9525 0001852  84.4026 275.7319 13.20769600198390
ONEWEB-0388             
1 49314U 21090AM  25295.19147750  .00000070  00000+0  14378-3 0  9992
2 49314  87.9245 352.3289 0001738  97.5761 262.5569 13.19724466195029
ONEWEB-0389             
1 50469U 21132A   25295.36663995  .00000031  00000+0  47576-4 0  9999
2 50469  87.9117  53.1608 0001515  88.5348 271.5957 13.17648742186767
ONEWEB-0390             
1 50470U 21132B   25295.36831937  .00000060  00000+0  12159-3 0  9994
2 50470  87.9111  53.1660 0001964  95.9427 264.1929 13.17647765186760
ONEWEB-0391             
1 50471U 21132C   25295.37001751 -.00000016  00000+0 -75436-4 0  9990
2 50471  87.9107  53.1764 0001741  70.7597 289.3723 13.17649792186766
ONEWEB-0392             
1 50472U 21132D   25295.40038522  .00000093  00000+0  20742-3 0  9993
2 50472  87.9117  53.1182 0001570  89.4612 270.6699 13.17649959186802
ONEWEB-0393             
1 50473U 21132E   25295.37353023 -.00000033  00000+0 -11848-3 0  9999
2 50473  87.9118  53.1444 0001615  94.5871 265.5445 13.17649779186799
ONEWEB-0394             
1 50474U 21132F   25295.52852154  .00000086  00000+0  18667-3 0  9998
2 50474  87.9230  22.6355 0001687  97.9691 262.1632 13.18685703190270
